start=new Date('2021-08-24T00:00:00.000Z').valueOf();
sats=[{"MEAN_MOTION":"15.06394886","DECAY_DATE":null,"ELEMENT_SET_NO":"999","TIME_SYSTEM":"UTC","INCLINATION":"53.0559","SEMIMAJOR_AXIS":"6925.364","EPOCH":"2021-08-23T21:30:44.822304","PERIAPSIS":"546.290","SITE":"AFETR","PERIOD":"95.592","RCS_SIZE":"LARGE","ECCENTRICITY":"0.00013560","REV_AT_EPOCH":"1369","REF_FRAME":"TEME","TLE_LINE2":"2 48646  53.0559   8.2182 0001356 129.5444 230.5665 15.06394886 13698","NORAD_CAT_ID":"48646","EPHEMERIS_TYPE":"0","MEAN_ELEMENT_THEORY":"SGP4","ARG_OF_PERICENTER":"129.5444","APOAPSIS":"548.168","BSTAR":"-0.00003595800000","CLASSIFICATION_TYPE":"U","OBJECT_ID":"2021-044J","GP_ID":"183331540","MEAN_MOTION_DOT":"-0.00000817","OBJECT_NAME":"STARLINK-2732","RA_OF_ASC_NODE":"8.2182","MEAN_ANOMALY":"230.5665","LAUNCH_DATE":"2021-05-26","OBJECT_TYPE":"PAYLOAD","TLE_LINE1":"1 48646U 21044J   21235.89635211 -.00000817  00000-0 -35958-4 0  9999","MEAN_MOTION_DDOT":"0.0000000000000","FILE":"3102124","COUNTRY_CODE":"US","CENTER_NAME":"EARTH"},{"PERIOD":"95.593","RCS_SIZE":"LARGE","PERIAPSIS":"546.204","SITE":"AFETR","INCLINATION":"53.0568","SEMIMAJOR_AXIS":"6925.375","EPOCH":"2021-08-23T21:25:26.537664","DECAY_DATE":null,"MEAN_MOTION":"15.06391239","ELEMENT_SET_NO":"999","TIME_SYSTEM":"UTC","EPHEMERIS_TYPE":"0","MEAN_ELEMENT_THEORY":"SGP4","ARG_OF_PERICENTER":"137.4587","APOAPSIS":"548.277","BSTAR":"-0.00003588200000","NORAD_CAT_ID":"48647","REF_FRAME":"TEME","TLE_LINE2":"2 48647  53.0568   8.2379 0001497 137.4587 222.6518 15.06391239 13697","ECCENTRICITY":"0.00014970","REV_AT_EPOCH":"1369","OBJECT_NAME":"STARLINK-2691","RA_OF_ASC_NODE":"8.2379","GP_ID":"183332151","MEAN_MOTION_DOT":"-0.00000816","OBJECT_ID":"2021-044K","CLASSIFICATION_TYPE":"U","CENTER_NAME":"EARTH","MEAN_MOTION_DDOT":"0.0000000000000","FILE":"3102124","COUNTRY_CODE":"US","LAUNCH_DATE":"2021-05-26","OBJECT_TYPE":"PAYLOAD","TLE_LINE1":"1 48647U 21044K   21235.89266826 -.00000816  00000-0 -35882-4 0  9997","MEAN_ANOMALY":"222.6518"},{"BSTAR":"0.00009125000000","APOAPSIS":"548.271","MEAN_ELEMENT_THEORY":"SGP4","ARG_OF_PERICENTER":"122.0089","EPHEMERIS_TYPE":"0","NORAD_CAT_ID":"48648","TLE_LINE2":"2 48648  53.0568   8.2386 0001485 122.0089 238.1044 15.06390573 13696","REF_FRAME":"TEME","REV_AT_EPOCH":"1369","ECCENTRICITY":"0.00014850","RCS_SIZE":"LARGE","PERIOD":"95.593","SITE":"AFETR","PERIAPSIS":"546.214","EPOCH":"2021-08-23T21:24:04.795488","SEMIMAJOR_AXIS":"6925.377","INCLINATION":"53.0568","TIME_SYSTEM":"UTC","ELEMENT_SET_NO":"999","MEAN_MOTION":"15.06390573","DECAY_DATE":null,"CENTER_NAME":"EARTH","COUNTRY_CODE":"US","FILE":"3102124","MEAN_MOTION_DDOT":"0.0000000000000","TLE_LINE1":"1 48648U 21044L   21235.89172217  .00001078  00000-0  91250-4 0  9998","OBJECT_TYPE":"PAYLOAD","LAUNCH_DATE":"2021-05-26","MEAN_ANOMALY":"238.1044","RA_OF_ASC_NODE":"8.2386","OBJECT_NAME":"STARLINK-2521","MEAN_MOTION_DOT":"0.00001078","GP_ID":"183331630","OBJECT_ID":"2021-044L","CLASSIFICATION_TYPE":"U"},{"OBJECT_NAME":"STARLINK-2673","RA_OF_ASC_NODE":"8.8900","GP_ID":"183331720","MEAN_MOTION_DOT":"-0.00000556","OBJECT_ID":"2021-044M","CLASSIFICATION_TYPE":"U","CENTER_NAME":"EARTH","MEAN_MOTION_DDOT":"0.0000000000000","FILE":"3102124","COUNTRY_CODE":"US","LAUNCH_DATE":"2021-05-26","OBJECT_TYPE":"PAYLOAD","TLE_LINE1":"1 48649U 21044M   21235.75628662 -.00000556  00000-0 -18428-4 0  9992","MEAN_ANOMALY":"236.5259","PERIOD":"95.592","RCS_SIZE":"LARGE","PERIAPSIS":"546.235","SITE":"AFETR","INCLINATION":"53.0517","SEMIMAJOR_AXIS":"6925.365","EPOCH":"2021-08-23T18:09:03.163968","MEAN_MOTION":"15.06394685","DECAY_DATE":null,"ELEMENT_SET_NO":"999","TIME_SYSTEM":"UTC","EPHEMERIS_TYPE":"0","ARG_OF_PERICENTER":"123.5867","MEAN_ELEMENT_THEORY":"SGP4","APOAPSIS":"548.224","BSTAR":"-0.00001842800000","NORAD_CAT_ID":"48649","REF_FRAME":"TEME","TLE_LINE2":"2 48649  53.0517   8.8900 0001436 123.5867 236.5259 15.06394685 13660","ECCENTRICITY":"0.00014360","REV_AT_EPOCH":"1366"},{"NORAD_CAT_ID":"48650","APOAPSIS":"548.305","BSTAR":"0.00006353700000","EPHEMERIS_TYPE":"0","ARG_OF_PERICENTER":"141.4259","MEAN_ELEMENT_THEORY":"SGP4","REV_AT_EPOCH":"1367","ECCENTRICITY":"0.00015320","TLE_LINE2":"2 48650  53.0536   8.5754 0001532 141.4259 218.6840 15.06390187 13679","REF_FRAME":"TEME","SITE":"AFETR","PERIAPSIS":"546.183","PERIOD":"95.593","RCS_SIZE":"LARGE","TIME_SYSTEM":"UTC","MEAN_MOTION":"15.06390187","DECAY_DATE":null,"ELEMENT_SET_NO":"999","SEMIMAJOR_AXIS":"6925.379","EPOCH":"2021-08-23T19:39:16.870464","INCLINATION":"53.0536","COUNTRY_CODE":"US","MEAN_MOTION_DDOT":"0.0000000000000","FILE":"3102124","CENTER_NAME":"EARTH","MEAN_ANOMALY":"218.6840","TLE_LINE1":"1 48650U 21044N   21235.81894526  .00000665  00000-0  63537-4 0  9995","LAUNCH_DATE":"2021-05-26","OBJECT_TYPE":"PAYLOAD","MEAN_MOTION_DOT":"0.00000665","GP_ID":"183331882","RA_OF_ASC_NODE":"8.5754","OBJECT_NAME":"STARLINK-2672","CLASSIFICATION_TYPE":"U","OBJECT_ID":"2021-044N"},{"GP_ID":"183331810","MEAN_MOTION_DOT":"0.00000966","OBJECT_NAME":"STARLINK-2731","RA_OF_ASC_NODE":"8.2883","CLASSIFICATION_TYPE":"U","OBJECT_ID":"2021-044P","MEAN_MOTION_DDOT":"0.0000000000000","FILE":"3102124","COUNTRY_CODE":"US","CENTER_NAME":"EARTH","MEAN_ANOMALY":"224.1773","LAUNCH_DATE":"2021-05-26","OBJECT_TYPE":"PAYLOAD","TLE_LINE1":"1 48651U 21044P   21235.88160157  .00000966  00000-0  83748-4 0  9999","PERIAPSIS":"546.128","SITE":"AFETR","PERIOD":"95.592","RCS_SIZE":"LARGE","DECAY_DATE":null,"MEAN_MOTION":"15.06398619","ELEMENT_SET_NO":"999","TIME_SYSTEM":"UTC","INCLINATION":"53.0556","SEMIMAJOR_AXIS":"6925.353","EPOCH":"2021-08-23T21:09:30.375648","NORAD_CAT_ID":"48651","EPHEMERIS_TYPE":"0","ARG_OF_PERICENTER":"135.9341","MEAN_ELEMENT_THEORY":"SGP4","APOAPSIS":"548.307","BSTAR":"0.00008374800000","ECCENTRICITY":"0.00015730","REV_AT_EPOCH":"1368","REF_FRAME":"TEME","TLE_LINE2":"2 48651  53.0556   8.2883 0001573 135.9341 224.1773 15.06398619 13683"},{"COUNTRY_CODE":"US","FILE":"3102124","MEAN_MOTION_DDOT":"0.0000000000000","CENTER_NAME":"EARTH","MEAN_ANOMALY":"227.7494","TLE_LINE1":"1 48652U 21044Q   21235.67888457 -.00001177  00000-0 -60173-4 0  9991","OBJECT_TYPE":"PAYLOAD","LAUNCH_DATE":"2021-05-26","MEAN_MOTION_DOT":"-0.00001177","GP_ID":"183331972","RA_OF_ASC_NODE":"9.1936","OBJECT_NAME":"STARLINK-2727","CLASSIFICATION_TYPE":"U","OBJECT_ID":"2021-044Q","NORAD_CAT_ID":"48652","BSTAR":"-0.00006017300000","APOAPSIS":"548.227","ARG_OF_PERICENTER":"132.3614","MEAN_ELEMENT_THEORY":"SGP4","EPHEMERIS_TYPE":"0","REV_AT_EPOCH":"1365","ECCENTRICITY":"0.00014060","TLE_LINE2":"2 48652  53.0548   9.1936 0001406 132.3614 227.7494 15.06387107 13659","REF_FRAME":"TEME","SITE":"AFETR","PERIAPSIS":"546.279","RCS_SIZE":"LARGE","PERIOD":"95.593","TIME_SYSTEM":"UTC","ELEMENT_SET_NO":"999","DECAY_DATE":null,"MEAN_MOTION":"15.06387107","EPOCH":"2021-08-23T16:17:35.626848","SEMIMAJOR_AXIS":"6925.388","INCLINATION":"53.0548"},{"SITE":"AFETR","PERIAPSIS":"546.310","RCS_SIZE":"LARGE","PERIOD":"95.593","TIME_SYSTEM":"UTC","ELEMENT_SET_NO":"999","MEAN_MOTION":"15.06393060","DECAY_DATE":null,"EPOCH":"2021-08-23T16:12:17.013888","SEMIMAJOR_AXIS":"6925.370","INCLINATION":"53.0566","NORAD_CAT_ID":"48653","BSTAR":"-0.00007494100000","APOAPSIS":"548.159","ARG_OF_PERICENTER":"133.6652","MEAN_ELEMENT_THEORY":"SGP4","EPHEMERIS_TYPE":"0","REV_AT_EPOCH":"1365","ECCENTRICITY":"0.00013350","TLE_LINE2":"2 48653  53.0566   9.2116 0001335 133.6652 226.4448 15.06393060 13658","REF_FRAME":"TEME","MEAN_MOTION_DOT":"-0.00001397","GP_ID":"183332062","RA_OF_ASC_NODE":"9.2116","OBJECT_NAME":"STARLINK-2720","CLASSIFICATION_TYPE":"U","OBJECT_ID":"2021-044R","COUNTRY_CODE":"US","FILE":"3102124","MEAN_MOTION_DDOT":"0.0000000000000","CENTER_NAME":"EARTH","MEAN_ANOMALY":"226.4448","TLE_LINE1":"1 48653U 21044R   21235.67519692 -.00001397  00000-0 -74941-4 0  9996","OBJECT_TYPE":"PAYLOAD","LAUNCH_DATE":"2021-05-26"},{"OBJECT_ID":"2021-044S","CLASSIFICATION_TYPE":"U","RA_OF_ASC_NODE":"8.3383","OBJECT_NAME":"STARLINK-2651","MEAN_MOTION_DOT":"-0.00001175","GP_ID":"183331541","TLE_LINE1":"1 48654U 21044S   21235.87055163 -.00001175  00000-0 -59996-4 0  9994","LAUNCH_DATE":"2021-05-26","OBJECT_TYPE":"PAYLOAD","MEAN_ANOMALY":"231.1488","CENTER_NAME":"EARTH","COUNTRY_CODE":"US","MEAN_MOTION_DDOT":"0.0000000000000","FILE":"3102124","SEMIMAJOR_AXIS":"6925.388","EPOCH":"2021-08-23T20:53:35.660832","INCLINATION":"53.0577","TIME_SYSTEM":"UTC","DECAY_DATE":null,"MEAN_MOTION":"15.06387143","ELEMENT_SET_NO":"999","PERIOD":"95.593","RCS_SIZE":"LARGE","SITE":"AFETR","PERIAPSIS":"546.324","TLE_LINE2":"2 48654  53.0577   8.3383 0001341 128.9620 231.1488 15.06387143 13681","REF_FRAME":"TEME","REV_AT_EPOCH":"1368","ECCENTRICITY":"0.00013410","APOAPSIS":"548.182","BSTAR":"-0.00005999600000","EPHEMERIS_TYPE":"0","ARG_OF_PERICENTER":"128.9620","MEAN_ELEMENT_THEORY":"SGP4","NORAD_CAT_ID":"48654"},{"OBJECT_ID":"2021-044T","CLASSIFICATION_TYPE":"U","RA_OF_ASC_NODE":"8.3522","OBJECT_NAME":"STARLINK-2657","MEAN_MOTION_DOT":"0.00001466","GP_ID":"183332152","TLE_LINE1":"1 48655U 21044T   21235.86685552  .00001466  00000-0  11727-3 0  9995","LAUNCH_DATE":"2021-05-26","OBJECT_TYPE":"PAYLOAD","MEAN_ANOMALY":"226.3574","CENTER_NAME":"EARTH","COUNTRY_CODE":"US","MEAN_MOTION_DDOT":"0.0000000000000","FILE":"3102124","SEMIMAJOR_AXIS":"6925.348","EPOCH":"2021-08-23T20:48:16.316928","INCLINATION":"53.0569","TIME_SYSTEM":"UTC","MEAN_MOTION":"15.06400113","DECAY_DATE":null,"ELEMENT_SET_NO":"999","PERIOD":"95.592","RCS_SIZE":"LARGE","SITE":"AFETR","PERIAPSIS":"546.120","TLE_LINE2":"2 48655  53.0569   8.3522 0001578 133.7546 226.3574 15.06400113 13686","REF_FRAME":"TEME","REV_AT_EPOCH":"1368","ECCENTRICITY":"0.00015780","APOAPSIS":"548.306","BSTAR":"0.00011727000000","EPHEMERIS_TYPE":"0","MEAN_ELEMENT_THEORY":"SGP4","ARG_OF_PERICENTER":"133.7546","NORAD_CAT_ID":"48655"}];
